OBJECT_NAME,OBJECT_ID,EPOCH,MEAN_MOTION,ECCENTRICITY,INCLINATION,RA_OF_ASC_NODE,ARG_OF_PERICENTER,MEAN_ANOMALY,EPHEMERIS_TYPE,CLASSIFICATION_TYPE,NORAD_CAT_ID,ELEMENT_SET_NO,REV_AT_EPOCH,BSTAR,MEAN_MOTION_DOT,MEAN_MOTION_DDOT
KUIPER-00607,2026-118Z,2026-06-10T11:59:12.980256,15.37332169,.00064064,51.8681,85.6110,133.9964,226.1551,0,U,69290,999,295,.49762166E-3,.18152E-3,0
KUIPER-00608,2026-118AA,2026-06-10T10:37:05.282400,15.35685897,.00093384,51.8603,85.9767,150.8746,209.2763,0,U,69291,999,294,.27915714E-3,.9474E-4,0
KUIPER-00610,2026-118AB,2026-06-10T11:50:01.002624,15.38198989,.00030165,51.8716,85.5642,113.3460,246.7844,0,U,69292,999,295,.62797686E-3,.23682E-3,0
KUIPER-00613,2026-118AC,2026-06-10T13:49:03.029664,15.35274404,.00098786,51.8634,85.3710,160.9266,199.2091,0,U,69293,999,296,.19644076E-3,.646E-4,0
KUIPER-00618,2026-118AD,2026-06-10T11:46:00.170400,15.38450788,.00019876,51.8716,85.5447,73.4755,286.6451,0,U,69294,999,295,.50217568E-3,.19004E-3,0
KUIPER-00620,2026-118AE,2026-06-10T11:49:06.568032,15.38270374,.00031122,51.8713,85.5613,99.4800,260.6539,0,U,69295,999,295,.51857374E-3,.19523E-3,0
STARLINK-37501,2026-119A,2026-06-10T14:00:01.999872,15.80005969,.00009253,97.2848,187.0422,81.8562,35.8425,0,U,69296,999,282,-.10796171E-2,-.195045E-2,0
STARLINK-37496,2026-119B,2026-06-10T14:00:01.999872,15.79942992,.00010239,97.2847,187.0402,92.2383,22.7260,0,U,69297,999,282,-.13225789E-3,-.24418E-3,0
STARLINK-37519,2026-119C,2026-06-10T14:00:01.999872,15.80798251,.00014514,97.2847,187.0504,96.1239,41.6035,0,U,69298,999,282,.17248459E-3,.32995E-3,0
STARLINK-37455,2026-119D,2026-06-10T14:00:01.999872,15.79970949,.00012851,97.2848,187.0441,91.2312,33.3462,0,U,69299,999,282,-.45956262E-3,-.84035E-3,0
STARLINK-37456,2026-119E,2026-06-10T14:00:01.999872,15.80794108,.00011256,97.2844,187.0522,109.6331,32.5838,0,U,69300,999,282,.24218387E-3,.46448E-3,0
STARLINK-37630,2026-119F,2026-06-10T14:00:01.999872,15.76757903,.00017617,97.2848,187.0501,91.4185,48.4442,0,U,69301,999,298,-.46896478E-2,-.691834E-2,0
STARLINK-37804,2026-119G,2026-06-10T14:00:01.999872,15.77022690,.00016609,97.2846,187.0521,101.0820,41.3479,0,U,69302,999,298,-.10311615E-1,-.1472378E-1,0
STARLINK-37730,2026-119H,2026-06-10T14:00:01.999872,15.80801659,.00010312,97.2845,187.0574,107.7685,47.1799,0,U,69303,999,298,.16100826E-3,.30787E-3,0
STARLINK-37731,2026-119J,2026-06-10T14:00:01.999872,15.77829348,.00015774,97.2844,187.0560,79.9075,73.1775,0,U,69304,999,298,-.14365685E-1,-.2070304E-1,0
STARLINK-37734,2026-119K,2026-06-10T14:00:01.999872,15.80798482,.00010608,97.2843,187.0598,98.7236,62.1935,0,U,69305,999,298,.18186435E-3,.34804E-3,0
STARLINK-37701,2026-119L,2026-06-10T14:00:01.999872,15.80814489,.00010607,97.2842,187.0601,103.9117,58.5341,0,U,69306,999,298,.47003449E-4,.887E-4,0
STARLINK-37732,2026-119M,2026-06-10T14:00:01.999872,15.80799014,.00015037,97.2842,187.0618,93.1702,71.6578,0,U,69307,999,298,.15630961E-3,.29878E-3,0
STARLINK-37689,2026-119N,2026-06-10T14:00:01.999872,15.78812372,.00019795,97.2845,187.0628,91.6264,78.5591,0,U,69308,999,298,-.16345011E-1,-.2459281E-1,0
STARLINK-37619,2026-119P,2026-06-10T14:00:01.999872,15.80798550,.00017838,97.2842,187.0657,99.8027,74.7479,0,U,69309,999,298,.16758178E-3,.32051E-3,0
STARLINK-37794,2026-119Q,2026-06-10T14:00:01.999872,15.80813866,.00011771,97.2838,187.0708,107.8405,79.3924,0,U,69310,999,298,.4966522E-4,.9381E-4,0
STARLINK-37795,2026-119R,2026-06-10T14:00:01.999872,15.78497837,.00016928,97.2844,187.0706,98.4541,89.3073,0,U,69311,999,298,-.12406308E-1,-.1872399E-1,0
STARLINK-37790,2026-119S,2026-06-10T14:00:01.999872,15.80807572,.0001592,97.2841,187.0739,101.2505,93.4090,0,U,69312,999,298,.14438802E-3,.27593E-3,0
STARLINK-37676,2026-119T,2026-06-10T14:00:01.999872,15.80797920,.00010905,97.2840,187.0791,105.1749,101.0038,0,U,69313,999,298,.21419062E-3,.41044E-3,0
STARLINK-37617,2026-119U,2026-06-10T14:00:01.999872,15.80796187,.00016344,97.2838,187.0800,100.5226,110.6084,0,U,69314,999,298,.20339987E-3,.38958E-3,0
STARLINK-37627,2026-119V,2026-06-10T14:00:01.999872,15.80755433,.00012775,97.2840,187.0820,94.9834,117.9747,0,U,69315,999,298,.42214125E-3,.81249E-3,0
STARLINK-37738,2026-119W,2026-06-10T14:00:01.999872,15.80793123,.000137,97.2836,187.0760,97.4733,102.6965,0,U,69316,999,298,.21167594E-3,.4055E-3,0
STARLINK-37799,2026-119X,2026-06-10T14:00:01.999872,15.80797487,.00015681,97.2836,187.0801,102.7544,106.1383,0,U,69317,999,293,.18408348E-3,.35232E-3,0
STARLINK-37802,2026-119Y,2026-06-10T14:00:01.999872,15.80762224,.00012994,97.2837,187.0860,103.5897,116.8405,0,U,69318,999,298,.4655008E-3,.89724E-3,0
STARLINK-37803,2026-119Z,2026-06-10T14:00:01.999872,15.80794334,.00011496,97.2839,187.0880,100.0066,124.1241,0,U,69319,999,293,.27147833E-3,.52118E-3,0
