0 KUIPER-00607
1 69290U 26118Z   26161.49945579  .00018152  00000-0  49762-3 0  9990
2 69290  51.8681  85.6110 0006406 133.9964 226.1551 15.37332169  2957
0 KUIPER-00608
1 69291U 26118AA  26161.44242225  .00009474  00000-0  27916-3 0  9998
2 69291  51.8603  85.9767 0009338 150.8746 209.2763 15.35685897  2949
0 KUIPER-00610
1 69292U 26118AB  26161.49306716  .00023682  00000-0  62798-3 0  9994
2 69292  51.8716  85.5642 0003016 113.3460 246.7844 15.38198989  2958
0 KUIPER-00613
1 69293U 26118AC  26161.57572951  .00006460  00000-0  19644-3 0  9997
2 69293  51.8634  85.3710 0009879 160.9266 199.2091 15.35274404  2968
0 KUIPER-00618
1 69294U 26118AD  26161.49027975  .00019004  00000-0  50218-3 0  9990
2 69294  51.8716  85.5447 0001988  73.4755 286.6451 15.38450788  2957
0 KUIPER-00620
1 69295U 26118AE  26161.49243713  .00019523  00000-0  51857-3 0  9997
2 69295  51.8713  85.5613 0003112  99.4800 260.6539 15.38270374  2950
0 STARLINK-37501
1 69296U 26119A   26161.58335648 -.00195045  00000-0 -10796-2 0  9990
2 69296  97.2848 187.0422 0000925  81.8562  35.8425 15.80005969  2824
0 STARLINK-37496
1 69297U 26119B   26161.58335648 -.00024418  00000-0 -13226-3 0  9998
2 69297  97.2847 187.0402 0001024  92.2383  22.7260 15.79942992  2826
0 STARLINK-37519
1 69298U 26119C   26161.58335648  .00032995  00000-0  17248-3 0  9994
2 69298  97.2847 187.0504 0001451  96.1239  41.6035 15.80798251  2826
0 STARLINK-37455
1 69299U 26119D   26161.58335648 -.00084035  00000-0 -45956-3 0  9996
2 69299  97.2848 187.0441 0001285  91.2312  33.3462 15.79970949  2827
0 STARLINK-37456
1 69300U 26119E   26161.58335648  .00046448  00000-0  24218-3 0  9991
2 69300  97.2844 187.0522 0001126 109.6331  32.5838 15.80794108  2826
0 STARLINK-37630
1 69301U 26119F   26161.58335648 -.00691834  00000-0 -46896-2 0  9994
2 69301  97.2848 187.0501 0001762  91.4185  48.4442 15.76757903  2980
0 STARLINK-37804
1 69302U 26119G   26161.58335648 -.01472378  00000-0 -10312-1 0  9999
2 69302  97.2846 187.0521 0001661 101.0820  41.3479 15.77022690  2984
0 STARLINK-37730
1 69303U 26119H   26161.58335648  .00030787  00000-0  16101-3 0  9995
2 69303  97.2845 187.0574 0001031 107.7685  47.1799 15.80801659  2988
0 STARLINK-37731
1 69304U 26119J   26161.58335648 -.02070304  00000-0 -14366-1 0  9998
2 69304  97.2844 187.0560 0001577  79.9075  73.1775 15.77829348  2985
0 STARLINK-37734
1 69305U 26119K   26161.58335648  .00034804  00000-0  18186-3 0  9996
2 69305  97.2843 187.0598 0001061  98.7236  62.1935 15.80798482  2986
0 STARLINK-37701
1 69306U 26119L   26161.58335648  .00008870  00000-0  47003-4 0  9992
2 69306  97.2842 187.0601 0001061 103.9117  58.5341 15.80814489  2984
0 STARLINK-37732
1 69307U 26119M   26161.58335648  .00029878  00000-0  15631-3 0  9995
2 69307  97.2842 187.0618 0001504  93.1702  71.6578 15.80799014  2989
0 STARLINK-37689
1 69308U 26119N   26161.58335648 -.02459281  00000-0 -16345-1 0  9996
2 69308  97.2845 187.0628 0001980  91.6264  78.5591 15.78812372  2989
0 STARLINK-37619
1 69309U 26119P   26161.58335648  .00032051  00000-0  16758-3 0  9995
2 69309  97.2842 187.0657 0001784  99.8027  74.7479 15.80798550  2985
0 STARLINK-37794
1 69310U 26119Q   26161.58335648  .00009381  00000-0  49665-4 0  9991
2 69310  97.2838 187.0708 0001177 107.8405  79.3924 15.80813866  2989
0 STARLINK-37795
1 69311U 26119R   26161.58335648 -.01872399  00000-0 -12406-1 0  9992
2 69311  97.2844 187.0706 0001693  98.4541  89.3073 15.78497837  2983
0 STARLINK-37790
1 69312U 26119S   26161.58335648  .00027593  00000-0  14439-3 0  9998
2 69312  97.2841 187.0739 0001592 101.2505  93.4090 15.80807572  2987
0 STARLINK-37676
1 69313U 26119T   26161.58335648  .00041044  00000-0  21419-3 0  9992
2 69313  97.2840 187.0791 0001091 105.1749 101.0038 15.80797920  2985
0 STARLINK-37617
1 69314U 26119U   26161.58335648  .00038958  00000-0  20340-3 0  9995
2 69314  97.2838 187.0800 0001634 100.5226 110.6084 15.80796187  2987
0 STARLINK-37627
1 69315U 26119V   26161.58335648  .00081249  00000-0  42214-3 0  9991
2 69315  97.2840 187.0820 0001277  94.9834 117.9747 15.80755433  2982
0 STARLINK-37738
1 69316U 26119W   26161.58335648  .00040550  00000-0  21168-3 0  9997
2 69316  97.2836 187.0760 0001370  97.4733 102.6965 15.80793123  2982
0 STARLINK-37799
1 69317U 26119X   26161.58335648  .00035232  00000-0  18408-3 0  9992
2 69317  97.2836 187.0801 0001568 102.7544 106.1383 15.80797487  2933
0 STARLINK-37802
1 69318U 26119Y   26161.58335648  .00089724  00000-0  46550-3 0  9997
2 69318  97.2837 187.0860 0001299 103.5897 116.8405 15.80762224  2980
0 STARLINK-37803
1 69319U 26119Z   26161.58335648  .00052118  00000-0  27148-3 0  9997
2 69319  97.2839 187.0880 0001150 100.0066 124.1241 15.80794334  2933
